[{"OBJECT_NAME":"TELEOS-2","OBJECT_ID":"2023-057C","EPOCH":"2026-03-08T15:30:11.035584","MEAN_MOTION":14.96380118,"ECCENTRICITY":8.033e-5,"INCLINATION":9.9874,"RA_OF_ASC_NODE":216.2411,"ARG_OF_PERICENTER":295.2771,"MEAN_ANOMALY":64.7359,"EPHEMERIS_TYPE":0,"CLASSIFICATION_TYPE":"U","NORAD_CAT_ID":56310,"ELEMENT_SET_NO":999,"REV_AT_EPOCH":15771,"BSTAR":1.5043378e-5,"MEAN_MOTION_DOT":8.63e-6,"MEAN_MOTION_DDOT":0},{"OBJECT_NAME":"STARLINK-5846","OBJECT_ID":"2023-064AW","EPOCH":"2026-03-09T22:00:01.999584","MEAN_MOTION":14.9830034,"ECCENTRICITY":0.00034877,"INCLINATION":70.0001,"RA_OF_ASC_NODE":103.86,"ARG_OF_PERICENTER":266.4052,"MEAN_ANOMALY":220.0268,"EPHEMERIS_TYPE":0,"CLASSIFICATION_TYPE":"U","NORAD_CAT_ID":56492,"ELEMENT_SET_NO":999,"REV_AT_EPOCH":571,"BSTAR":0.0050708527,"MEAN_MOTION_DOT":0.00060895,"MEAN_MOTION_DDOT":0}]
